{
  "type": "FeatureCollection",
  "features": [
    {
      "type": "Feature",
      "properties": {
        "norad_id": 39110,
        "name": "COSMOS 2251 DEB",
        "group": "cosmos-2251-debris",
        "lat": -65.96270598090868,
        "lon": -104.94796610239466,
        "alt_km": 593.6588296496493,
        "timestamp": "2025-12-26T08:37:54.977891+00:00",
        "meta_object_name": "COSMOS 2251 DEB",
        "meta_object_id": "1993-036BTZ",
        "meta_epoch": "2025-12-17T22:04:59.920608",
        "meta_mean_motion": 14.72312711,
        "meta_eccentricity": 0.00972569,
        "meta_inclination": 73.9594,
        "meta_ra_of_asc_node": 51.3772,
        "meta_arg_of_pericenter": 282.7235,
        "meta_mean_anomaly": 255.0933,
        "meta_ephemeris_type": 0,
        "meta_classification_type": "U",
        "meta_norad_cat_id": 39110,
        "meta_element_set_no": 999,
        "meta_rev_at_epoch": 62560,
        "meta_bstar": 0.00028872963,
        "meta_mean_motion_dot": 1.929e-05,
        "meta_mean_motion_ddot": 0,
        "tle_line1": "1 39110U 93036BTZ 25351.92013797  .00001929  00000+0  28873-3 0  9990",
        "tle_line2": "2 39110  73.9594  51.3772 0097256 282.7235 255.0933 14.72312711625601"
      },
      "geometry": {
        "type": "Point",
        "coordinates": [
          -104.94796610239466,
          -65.96270598090868
        ]
      }
    },
    {
      "type": "Feature",
      "properties": {
        "norad_id": 39111,
        "name": "COSMOS 2251 DEB",
        "group": "cosmos-2251-debris",
        "lat": 39.52911184181933,
        "lon": 179.0700941601903,
        "alt_km": 518.6274616765995,
        "timestamp": "2025-12-26T08:37:54.977914+00:00",
        "meta_object_name": "COSMOS 2251 DEB",
        "meta_object_id": "1993-036BUA",
        "meta_epoch": "2025-12-01T22:58:55.551360",
        "meta_mean_motion": 15.11912111,
        "meta_eccentricity": 0.00109111,
        "meta_inclination": 74.0059,
        "meta_ra_of_asc_node": 63.5328,
        "meta_arg_of_pericenter": 39.1207,
        "meta_mean_anomaly": 321.0773,
        "meta_ephemeris_type": 0,
        "meta_classification_type": "U",
        "meta_norad_cat_id": 39111,
        "meta_element_set_no": 999,
        "meta_rev_at_epoch": 8982,
        "meta_bstar": 0.0056424119,
        "meta_mean_motion_dot": 0.00098096,
        "meta_mean_motion_ddot": 0,
        "tle_line1": "1 39111U 93036BUA 25335.95758740  .00098096  00000+0  56424-2 0  9993",
        "tle_line2": "2 39111  74.0059  63.5328 0010911  39.1207 321.0773 15.11912111 89826"
      },
      "geometry": {
        "type": "Point",
        "coordinates": [
          179.0700941601903,
          39.52911184181933
        ]
      }
    },
    {
      "type": "Feature",
      "properties": {
        "norad_id": 39546,
        "name": "COSMOS 2251 DEB",
        "group": "cosmos-2251-debris",
        "lat": -11.865917955093611,
        "lon": -67.1618026777003,
        "alt_km": 586.549803027222,
        "timestamp": "2025-12-26T08:37:54.977937+00:00",
        "meta_object_name": "COSMOS 2251 DEB",
        "meta_object_id": "1993-036BUC",
        "meta_epoch": "2025-12-25T23:43:29.900928",
        "meta_mean_motion": 14.92423916,
        "meta_eccentricity": 0.0044177,
        "meta_inclination": 73.9984,
        "meta_ra_of_asc_node": 110.1282,
        "meta_arg_of_pericenter": 268.5,
        "meta_mean_anomaly": 91.1122,
        "meta_ephemeris_type": 0,
        "meta_classification_type": "U",
        "meta_norad_cat_id": 39546,
        "meta_element_set_no": 999,
        "meta_rev_at_epoch": 64634,
        "meta_bstar": 0.0015435,
        "meta_mean_motion_dot": 0.00016116,
        "meta_mean_motion_ddot": 0,
        "tle_line1": "1 39546U 93036BUC 25359.98854052  .00016116  00000+0  15435-2 0  9997",
        "tle_line2": "2 39546  73.9984 110.1282 0044177 268.5000  91.1122 14.92423916646348"
      },
      "geometry": {
        "type": "Point",
        "coordinates": [
          -67.1618026777003,
          -11.865917955093611
        ]
      }
    },
    {
      "type": "Feature",
      "properties": {
        "norad_id": 39547,
        "name": "COSMOS 2251 DEB",
        "group": "cosmos-2251-debris",
        "lat": 26.731334606774013,
        "lon": -1.212558895138548,
        "alt_km": 549.1865792649651,
        "timestamp": "2025-12-26T08:37:54.977960+00:00",
        "meta_object_name": "COSMOS 2251 DEB",
        "meta_object_id": "1993-036BUD",
        "meta_epoch": "2025-12-23T08:58:43.079808",
        "meta_mean_motion": 15.04053977,
        "meta_eccentricity": 0.00057754,
        "meta_inclination": 74.0016,
        "meta_ra_of_asc_node": 356.5965,
        "meta_arg_of_pericenter": 355.0071,
        "meta_mean_anomaly": 72.813,
        "meta_ephemeris_type": 0,
        "meta_classification_type": "U",
        "meta_norad_cat_id": 39547,
        "meta_element_set_no": 999,
        "meta_rev_at_epoch": 64185,
        "meta_bstar": 0.003298855,
        "meta_mean_motion_dot": 0.00045935,
        "meta_mean_motion_ddot": 0,
        "tle_line1": "1 39547U 93036BUD 25357.37410972  .00045935  00000+0  32989-2 0  9992",
        "tle_line2": "2 39547  74.0016 356.5965 0005775 355.0071  72.8130 15.04053977641858"
      },
      "geometry": {
        "type": "Point",
        "coordinates": [
          -1.212558895138548,
          26.731334606774013
        ]
      }
    },
    {
      "type": "Feature",
      "properties": {
        "norad_id": 39553,
        "name": "COSMOS 2251 DEB",
        "group": "cosmos-2251-debris",
        "lat": 29.49716091678666,
        "lon": 117.10983462303614,
        "alt_km": 839.6434924530968,
        "timestamp": "2025-12-26T08:37:54.977973+00:00",
        "meta_object_name": "COSMOS 2251 DEB",
        "meta_object_id": "1993-036BUK",
        "meta_epoch": "2025-12-19T04:26:08.787552",
        "meta_mean_motion": 13.99893274,
        "meta_eccentricity": 0.02023146,
        "meta_inclination": 74.0301,
        "meta_ra_of_asc_node": 318.8543,
        "meta_arg_of_pericenter": 93.0274,
        "meta_mean_anomaly": 269.4029,
        "meta_ephemeris_type": 0,
        "meta_classification_type": "U",
        "meta_norad_cat_id": 39553,
        "meta_element_set_no": 999,
        "meta_rev_at_epoch": 75707,
        "meta_bstar": 0.00037697212,
        "meta_mean_motion_dot": 6.38e-06,
        "meta_mean_motion_ddot": 0,
        "tle_line1": "1 39553U 93036BUK 25353.18482393  .00000638  00000+0  37697-3 0  9993",
        "tle_line2": "2 39553  74.0301 318.8543 0202314  93.0274 269.4029 13.99893274757074"
      },
      "geometry": {
        "type": "Point",
        "coordinates": [
          117.10983462303614,
          29.49716091678666
        ]
      }
    },
    {
      "type": "Feature",
      "properties": {
        "norad_id": 39554,
        "name": "COSMOS 2251 DEB",
        "group": "cosmos-2251-debris",
        "lat": -61.527901991367415,
        "lon": 88.31459652465557,
        "alt_km": 536.7788222624822,
        "timestamp": "2025-12-26T08:37:54.977985+00:00",
        "meta_object_name": "COSMOS 2251 DEB",
        "meta_object_id": "1993-036BUL",
        "meta_epoch": "2025-12-10T06:12:03.924864",
        "meta_mean_motion": 15.10130993,
        "meta_eccentricity": 0.0002993,
        "meta_inclination": 74.0187,
        "meta_ra_of_asc_node": 269.7383,
        "meta_arg_of_pericenter": 74.7531,
        "meta_mean_anomaly": 81.5927,
        "meta_ephemeris_type": 0,
        "meta_classification_type": "U",
        "meta_norad_cat_id": 39554,
        "meta_element_set_no": 999,
        "meta_rev_at_epoch": 64347,
        "meta_bstar": 0.0046896,
        "meta_mean_motion_dot": 0.000773,
        "meta_mean_motion_ddot": 0,
        "tle_line1": "1 39554U 93036BUL 25344.25837876  .00077300  00000+0  46896-2 0  9992",
        "tle_line2": "2 39554  74.0187 269.7383 0002993  74.7531  81.5927 15.10130993643471"
      },
      "geometry": {
        "type": "Point",
        "coordinates": [
          88.31459652465557,
          -61.527901991367415
        ]
      }
    },
    {
      "type": "Feature",
      "properties": {
        "norad_id": 39583,
        "name": "COSMOS 2251 DEB",
        "group": "cosmos-2251-debris",
        "lat": -50.45757256496363,
        "lon": -159.39293839089103,
        "alt_km": 609.5388957744353,
        "timestamp": "2025-12-26T08:37:54.977995+00:00",
        "meta_object_name": "COSMOS 2251 DEB",
        "meta_object_id": "1993-036BUN",
        "meta_epoch": "2025-12-24T09:12:01.945440",
        "meta_mean_motion": 14.60635588,
        "meta_eccentricity": 0.01369797,
        "meta_inclination": 73.9311,
        "meta_ra_of_asc_node": 224.8404,
        "meta_arg_of_pericenter": 335.8722,
        "meta_mean_anomaly": 23.6064,
        "meta_ephemeris_type": 0,
        "meta_classification_type": "U",
        "meta_norad_cat_id": 39583,
        "meta_element_set_no": 999,
        "meta_rev_at_epoch": 61949,
        "meta_bstar": 0.0015752368,
        "meta_mean_motion_dot": 8.73e-05,
        "meta_mean_motion_ddot": 0,
        "tle_line1": "1 39583U 93036BUN 25358.38335585  .00008730  00000+0  15752-2 0  9991",
        "tle_line2": "2 39583  73.9311 224.8404 0136979 335.8722  23.6064 14.60635588619499"
      },
      "geometry": {
        "type": "Point",
        "coordinates": [
          -159.39293839089103,
          -50.45757256496363
        ]
      }
    }
  ]
}